[Satellite]
VERSION=1.1
NAME=GP-B
NICKNAME=GP-B
TLE1=1 28230U 04014A   11059.77581727  .00000196  00000-0  26155-4 0   354
TLE2=2 28230  89.9306 153.2898 0003597  84.2612 275.9021 14.76125872369462
